NORAD_CAT_ID,OBJECT_NAME,OBJECT_TYPE,EPOCH,MEAN_MOTION,ECCENTRICITY,INCLINATION,RA_OF_ASC_NODE,ARG_OF_PERICENTER,MEAN_ANOMALY,BSTAR,MEAN_MOTION_DOT,MEAN_MOTION_DDOT,TLE_LINE0,TLE_LINE1,TLE_LINE2,SEMIMAJOR_AXIS,PERIOD,APOGEE,PERIGEE,DECAYED
56470.0,STARLINK-5523,PAYLOAD,2023-10-09 21:52:53,14.99284733,0.0002704,70.0,187.8867,272.8341,87.2509,-0.00023406,-2.955e-05,0.0,0 STARLINK-5523,1 56470U 23064Y   23282.91173383 -.00002955  00000-0 -23406-3 0  9990,2 56470  70.0000 187.8867 0002704 272.8341  87.2509 14.99284733 23653,6947.242,96.046,570.986,567.228,0.0
56470.0,STARLINK-5523,PAYLOAD,2023-10-10 02:41:06,14.99286749,0.0002786,70.0007,187.3815,276.3846,83.6996,-0.00015884,-2.036e-05,0.0,0 STARLINK-5523,1 56470U 23064Y   23283.11188215 -.00002036  00000-0 -15884-3 0  9994,2 56470  70.0007 187.3815 0002786 276.3846  83.6996 14.99286749 24040,6947.236,96.046,571.036,567.165,0.0
56470.0,STARLINK-5523,PAYLOAD,2023-10-10 10:41:27,14.99314214,0.0002848,70.0001,186.5386,276.9951,83.0884,-0.00046389,-5.767e-05,0.0,0 STARLINK-5523,1 56470U 23064Y   23283.44545583 -.00005767  00000-0 -46389-3 0  9993,2 56470  70.0001 186.5386 0002848 276.9951  83.0884 14.99314214 24094,6947.151,96.044,570.995,567.037,0.0
56470.0,STARLINK-5523,PAYLOAD,2023-10-10 21:53:57,14.99305788,0.000251,70.0001,185.3598,270.9402,89.147,-0.00022289,-2.82e-05,0.0,0 STARLINK-5523,1 56470U 23064Y   23283.91247460 -.00002820  00000-0 -22289-3 0  9998,2 56470  70.0001 185.3598 0002510 270.9402  89.1470 14.99305788 23809,6947.177,96.044,570.786,567.298,0.0
56470.0,STARLINK-5523,PAYLOAD,2023-10-11 02:42:13,14.99273557,0.0002581,69.9994,184.8548,275.708,84.3785,-0.00058688,-7.262e-05,0.0,0 STARLINK-5523,1 56470U 23064Y   23284.11265576 -.00007262  00000-0 -58688-3 0  9996,2 56470  69.9994 184.8548 0002581 275.7080  84.3785 14.99273557 24196,6947.277,96.047,570.935,567.348,0.0
56470.0,STARLINK-5523,PAYLOAD,2023-10-11 10:42:35,14.99271133,0.0002603,69.9997,184.0124,288.5262,71.5615,-0.00061659,-7.624e-05,0.0,0 STARLINK-5523,1 56470U 23064Y   23284.44624939 -.00007624  00000-0 -61659-3 0  9998,2 56470  69.9997 184.0124 0002603 288.5262  71.5615 14.99271133 23883,6947.284,96.047,570.957,567.341,0.0
56470.0,STARLINK-5523,PAYLOAD,2023-10-11 18:43:45,14.98749531,0.0002744,69.9983,183.1719,277.2473,82.8374,-0.0050169,-0.00060092,0.0,0 STARLINK-5523,1 56470U 23064Y   23284.78039302 -.00060092  00000-0 -50169-2 0  9990,2 56470  69.9983 183.1719 0002744 277.2473  82.8374 14.98749531 24297,6948.896,96.08,572.668,568.854,0.0
56470.0,STARLINK-5523,PAYLOAD,2023-10-12 10:44:54,14.98650025,0.0002623,69.9987,181.4874,285.7703,74.3167,-0.004366,-0.00052231,0.0,0 STARLINK-5523,1 56470U 23064Y   23285.44785535 -.00052231  00000-0 -43660-2 0  9994,2 56470  69.9987 181.4874 0002623 285.7703  74.3167 14.98650025 24037,6949.203,96.086,572.891,569.246,0.0
56470.0,STARLINK-5523,PAYLOAD,2023-10-12 20:21:36,14.9864386,0.0002852,69.9989,180.4776,270.2503,89.8329,-0.0048129,-0.00057516,0.0,0 STARLINK-5523,1 56470U 23064Y   23285.84833401 -.00057516  00000-0 -48129-2 0  9990,2 56470  69.9989 180.4776 0002852 270.2503  89.8329 14.98643860 24456,6949.222,96.087,573.069,569.106,0.0
56470.0,STARLINK-5523,PAYLOAD,2023-10-12 21:57:42,14.98640916,0.0002932,69.9988,180.3087,273.4533,86.6291,-0.0047279,-0.00056506,0.0,0 STARLINK-5523,1 56470U 23064Y   23285.91508089 -.00056506  00000-0 -47279-2 0  9992,2 56470  69.9988 180.3087 0002932 273.4533  86.6291 14.98640916 24100,6949.232,96.087,573.134,569.059,0.0
56470.0,STARLINK-5523,PAYLOAD,2023-10-13 10:46:41,14.98574957,0.0002607,69.9999,178.9632,288.527,71.5605,-0.0040541,-0.00048438,0.0,0 STARLINK-5523,1 56470U 23064Y   23286.44909575 -.00048438  00000-0 -40541-2 0  9996,2 56470  69.9999 178.9632 0002607 288.5270  71.5605 14.98574957 24546,6949.435,96.091,573.112,569.489,0.0
56470.0,STARLINK-5523,PAYLOAD,2023-10-13 20:23:32,14.98338981,0.0002331,70.0,177.9532,272.6271,87.4621,-8.4796e-05,-1.105e-05,0.0,0 STARLINK-5523,1 56470U 23064Y   23286.84968510 -.00001105  00000-0 -84796-4 0  9996,2 56470  70.0000 177.9532 0002331 272.6271  87.4621 14.98338981 24605,6950.165,96.106,573.65,570.41,0.0
56470.0,STARLINK-5523,PAYLOAD,2023-10-13 21:59:40,14.98340163,0.0002326,69.9999,177.785,272.5922,87.4971,-7.5152e-05,-9.9e-06,0.0,0 STARLINK-5523,1 56470U 23064Y   23286.91644369 -.00000990  00000-0 -75152-4 0  9994,2 56470  69.9999 177.7850 0002326 272.5922  87.4971 14.98340163 24250,6950.161,96.106,573.643,570.41,0.0
56470.0,STARLINK-5523,PAYLOAD,2023-10-14 14:00:01,14.98272981,0.0003032,70.0014,176.103,264.9041,91.4851,0.0079748,0.00096237,0.0,0 STARLINK-5523,1 56470U 23064Y   23287.58335648  .00096237  00000-0  79748-2 0  9995,2 56470  70.0014 176.1030 0003032 264.9041  91.4851 14.98272981 24711,6950.369,96.111,574.342,570.127,0.0
56470.0,STARLINK-5523,PAYLOAD,2023-10-14 22:00:00,14.98328352,0.0003039,70.0014,175.2628,269.2646,84.5063,-0.0010189,-0.00012229,0.0,0 STARLINK-5523,1 56470U 23064Y   23287.91667824 -.00012229  00000-0 -10189-2 0  9991,2 56470  70.0014 175.2628 0003039 269.2646  84.5063 14.98328352 24767,6950.198,96.107,574.175,569.951,0.0
56470.0,STARLINK-5523,PAYLOAD,2023-10-15 09:14:39,14.98328315,0.0002614,70.0001,174.083,264.6148,95.4713,-0.0001342,-1.694e-05,0.0,0 STARLINK-5523,1 56470U 23064Y   23288.38517377 -.00001694  00000-0 -13420-3 0  9996,2 56470  70.0001 174.0830 0002614 264.6148  95.4713 14.98328315 24479,6950.198,96.107,573.88,570.246,0.0
56470.0,STARLINK-5523,PAYLOAD,2023-10-15 20:27:35,14.98332021,0.0002802,69.9994,172.9027,268.4853,91.5985,-1.7495e-05,-3.02e-06,0.0,0 STARLINK-5523,1 56470U 23064Y   23288.85248864 -.00000302  00000-0 -17495-4 0  9992,2 56470  69.9994 172.9027 0002802 268.4853  91.5985 14.98332021 24901,6950.187,96.107,573.999,570.104,0.0
56470.0,STARLINK-5523,PAYLOAD,2023-10-15 22:03:43,14.98332885,0.0002743,69.9994,172.7345,268.9106,91.1739,-2.1241e-05,-3.46e-06,0.0,0 STARLINK-5523,1 56470U 23064Y   23288.91924816 -.00000346  00000-0 -21241-4 0  9999,2 56470  69.9994 172.7345 0002743 268.9106  91.1739 14.98332885 24554,6950.184,96.107,573.955,570.143,0.0
56470.0,STARLINK-5523,PAYLOAD,2023-10-16 02:52:06,14.98339956,0.0002726,69.9993,172.2301,267.4541,92.6306,1.209e-05,5.1e-07,0.0,0 STARLINK-5523,1 56470U 23064Y   23289.11952190  .00000051  00000-0  12090-4 0  9991,2 56470  69.9993 172.2301 0002726 267.4541  92.6306 14.98339956 24943,6950.162,96.106,573.922,570.132,0.0
56470.0,STARLINK-5523,PAYLOAD,2023-10-16 09:16:39,14.98337405,0.0002715,69.9994,171.5568,267.7239,92.3609,-4.0659e-05,-5.78e-06,0.0,0 STARLINK-5523,1 56470U 23064Y   23289.38656362 -.00000578  00000-0 -40659-4 0  9990,2 56470  69.9994 171.5568 0002715 267.7239  92.3609 14.98337405 24621,6950.17,96.107,573.922,570.148,0.0
56470.0,STARLINK-5523,PAYLOAD,2023-10-16 17:17:19,14.9832607,0.0002802,69.9993,170.7153,268.6522,91.4316,0.00012202,1.363e-05,0.0,0 STARLINK-5523,1 56470U 23064Y   23289.72036608  .00001363  00000-0  12202-3 0  9996,2 56470  69.9993 170.7153 0002802 268.6522  91.4316 14.98326070 25030,6950.205,96.107,574.017,570.123,0.0
56470.0,STARLINK-5523,PAYLOAD,2023-10-17 09:18:40,14.98334936,0.0002681,69.9998,169.0313,270.9121,89.1731,-8.672e-05,-1.128e-05,0.0,0 STARLINK-5523,1 56470U 23064Y   23290.38796593 -.00001128  00000-0 -86720-4 0  9994,2 56470  69.9998 169.0313 0002681 270.9121  89.1731 14.98334936 24775,6950.178,96.107,573.906,570.179,0.0
56470.0,STARLINK-5523,PAYLOAD,2023-10-18 01:20:01,14.98320585,0.0002704,69.9994,167.3487,266.9307,93.1543,7.7043e-05,8.26e-06,0.0,0 STARLINK-5523,1 56470U 23064Y   23291.05557041  .00000826  00000-0  77043-4 0  9992,2 56470  69.9994 167.3487 0002704 266.9307  93.1543 14.98320585 24873,6950.222,96.108,573.966,570.208,0.0
56470.0,STARLINK-5523,PAYLOAD,2023-10-18 09:20:41,14.98332479,0.0002717,69.9998,166.5065,272.1295,87.9553,-5.032e-05,-6.93e-06,0.0,0 STARLINK-5523,1 56470U 23064Y   23291.38936576 -.00000693  00000-0 -50320-4 0  9995,2 56470  69.9998 166.5065 0002717 272.1295  87.9553 14.98332479 25282,6950.185,96.107,573.939,570.162,0.0
56470.0,STARLINK-5523,PAYLOAD,2023-10-18 22:09:45,14.98334417,0.0002916,69.9997,165.1599,268.6181,91.4644,-5.3262e-05,-7.29e-06,0.0,0 STARLINK-5523,1 56470U 23064Y   23291.92344306 -.00000729  00000-0 -53262-4 0  9997,2 56470  69.9997 165.1599 0002916 268.6181  91.4644 14.98334417 25008,6950.179,96.107,574.071,570.018,0.0
56470.0,STARLINK-5523,PAYLOAD,2023-10-19 01:22:01,14.98337266,0.0002864,69.9995,164.8234,269.0443,91.0388,-1.4847e-05,-2.7e-06,0.0,0 STARLINK-5523,1 56470U 23064Y   23292.05695988 -.00000270  00000-0 -14847-4 0  9994,2 56470  69.9995 164.8234 0002864 269.0443  91.0388 14.98337266 25383,6950.17,96.107,574.026,570.045,0.0
56470.0,STARLINK-5523,PAYLOAD,2023-10-19 22:11:46,14.98331879,0.0002908,69.9994,162.6363,270.5323,89.5503,5.0188e-05,5.06e-06,0.0,0 STARLINK-5523,1 56470U 23064Y   23292.92483921  .00000506  00000-0  50188-4 0  9990,2 56470  69.9994 162.6363 0002908 270.5323  89.5503 14.98331879 25154,6950.187,96.107,574.073,570.031,0.0
56470.0,STARLINK-5523,PAYLOAD,2023-10-20 01:24:01,14.98334524,0.0002871,69.999,162.2994,270.3484,89.7346,8.343e-05,9.03e-06,0.0,0 STARLINK-5523,1 56470U 23064Y   23293.05835635  .00000903  00000-0  83430-4 0  9995,2 56470  69.9990 162.2994 0002871 270.3484  89.7346 14.98334524 25530,6950.179,96.107,574.039,570.049,0.0
56470.0,STARLINK-5523,PAYLOAD,2023-10-20 20:37:39,14.98326377,0.0002839,69.9983,160.2794,274.426,85.6574,-5.1038e-05,-7.02e-06,0.0,0 STARLINK-5523,1 56470U 23064Y   23293.85948594 -.00000702  00000-0 -51038-4 0  9990,2 56470  69.9983 160.2794 0002839 274.4260  85.6574 14.98326377 25657,6950.204,96.107,574.042,570.096,0.0
56470.0,STARLINK-5523,PAYLOAD,2023-10-20 22:13:47,14.98330581,0.0002551,70.0003,160.1115,282.6576,77.4298,-0.00012034,-1.528e-05,0.0,0 STARLINK-5523,1 56470U 23064Y   23293.92624722 -.00001528  00000-0 -12034-3 0  9991,2 56470  70.0003 160.1115 0002551 282.6576  77.4298 14.98330581 25307,6950.191,96.107,573.829,570.283,0.0
